[{"OBJECT_NAME":"STARLINK-2104","OBJECT_ID":"2021-005AM","EPOCH":"2026-03-09T21:54:21.353760","MEAN_MOTION":15.06426617,"ECCENTRICITY":0.00013635,"INCLINATION":53.0579,"RA_OF_ASC_NODE":30.8657,"ARG_OF_PERICENTER":64.8855,"MEAN_ANOMALY":295.2275,"EPHEMERIS_TYPE":0,"CLASSIFICATION_TYPE":"U","NORAD_CAT_ID":47384,"ELEMENT_SET_NO":999,"REV_AT_EPOCH":28349,"BSTAR":0.00031171909,"MEAN_MOTION_DOT":4.368e-5,"MEAN_MOTION_DDOT":0},{"OBJECT_NAME":"CZ-6A DEB","OBJECT_ID":"2022-151EL","EPOCH":"2026-03-09T12:09:26.951616","MEAN_MOTION":14.86893831,"ECCENTRICITY":0.00944101,"INCLINATION":98.6325,"RA_OF_ASC_NODE":168.3306,"ARG_OF_PERICENTER":70.5159,"MEAN_ANOMALY":290.6224,"EPHEMERIS_TYPE":0,"CLASSIFICATION_TYPE":"U","NORAD_CAT_ID":54412,"ELEMENT_SET_NO":999,"REV_AT_EPOCH":17774,"BSTAR":0.0014840705,"MEAN_MOTION_DOT":0.00014338,"MEAN_MOTION_DDOT":0}]
